CCSDS_OMM_VERS = 2.0
CREATION_DATE  = 
ORIGINATOR     = 

OBJECT_NAME    = SL-14 R/B
OBJECT_ID      = 1991-042B
CENTER_NAME    = EARTH
REF_FRAME      = TEME
TIME_SYSTEM    = UTC
MEAN_ELEMENT_THEORY = SGP/SGP4

EPOCH          = 2026-02-22T05:26:28.780800
MEAN_MOTION    = 14.81812407
ECCENTRICITY   = .0015642
INCLINATION    = 82.4897
RA_OF_ASC_NODE = 234.6845
ARG_OF_PERICENTER = 294.1028
MEAN_ANOMALY   = 65.8550

EPHEMERIS_TYPE = 0
CLASSIFICATION_TYPE = U
NORAD_CAT_ID   = 21423
ELEMENT_SET_NO = 999
REV_AT_EPOCH   = 85078
BSTAR          = .52023E-4
MEAN_MOTION_DOT = .434E-5
MEAN_MOTION_DDOT = 0

CCSDS_OMM_VERS = 2.0
CREATION_DATE  = 
ORIGINATOR     = 

OBJECT_NAME    = ERS-1
OBJECT_ID      = 1991-050A
CENTER_NAME    = EARTH
REF_FRAME      = TEME
TIME_SYSTEM    = UTC
MEAN_ELEMENT_THEORY = SGP/SGP4

EPOCH          = 2026-02-22T01:22:29.583840
MEAN_MOTION    = 14.39435453
ECCENTRICITY   = .0030957
INCLINATION    = 98.7890
RA_OF_ASC_NODE = 70.8987
ARG_OF_PERICENTER = 247.9236
MEAN_ANOMALY   = 111.8663

EPHEMERIS_TYPE = 0
CLASSIFICATION_TYPE = U
NORAD_CAT_ID   = 21574
ELEMENT_SET_NO = 999
REV_AT_EPOCH   = 81348
BSTAR          = .908E-4
MEAN_MOTION_DOT = .237E-5
MEAN_MOTION_DDOT = 0

CCSDS_OMM_VERS = 2.0
CREATION_DATE  = 
ORIGINATOR     = 

OBJECT_NAME    = ARIANE 40 R/B
OBJECT_ID      = 1991-050F
CENTER_NAME    = EARTH
REF_FRAME      = TEME
TIME_SYSTEM    = UTC
MEAN_ELEMENT_THEORY = SGP/SGP4

EPOCH          = 2026-02-22T03:29:24.224064
MEAN_MOTION    = 14.42880889
ECCENTRICITY   = .0004284
INCLINATION    = 98.2048
RA_OF_ASC_NODE = 105.9627
ARG_OF_PERICENTER = 115.2292
MEAN_ANOMALY   = 244.9343

EPHEMERIS_TYPE = 0
CLASSIFICATION_TYPE = U
NORAD_CAT_ID   = 21610
ELEMENT_SET_NO = 999
REV_AT_EPOCH   = 81675
BSTAR          = .77378E-4
MEAN_MOTION_DOT = .217E-5
MEAN_MOTION_DDOT = 0

CCSDS_OMM_VERS = 2.0
CREATION_DATE  = 
ORIGINATOR     = 

OBJECT_NAME    = INTERCOSMOS 25
OBJECT_ID      = 1991-086A
CENTER_NAME    = EARTH
REF_FRAME      = TEME
TIME_SYSTEM    = UTC
MEAN_ELEMENT_THEORY = SGP/SGP4

EPOCH          = 2026-02-22T05:15:41.752800
MEAN_MOTION    = 12.11951561
ECCENTRICITY   = .1487038
INCLINATION    = 82.6076
RA_OF_ASC_NODE = 319.3571
ARG_OF_PERICENTER = 150.2572
MEAN_ANOMALY   = 219.2167

EPHEMERIS_TYPE = 0
CLASSIFICATION_TYPE = U
NORAD_CAT_ID   = 21819
ELEMENT_SET_NO = 999
REV_AT_EPOCH   = 49481
BSTAR          = .19354E-3
MEAN_MOTION_DOT = .1016E-4
MEAN_MOTION_DDOT = 0

CCSDS_OMM_VERS = 2.0
CREATION_DATE  = 
ORIGINATOR     = 

OBJECT_NAME    = SL-8 R/B
OBJECT_ID      = 1992-008B
CENTER_NAME    = EARTH
REF_FRAME      = TEME
TIME_SYSTEM    = UTC
MEAN_ELEMENT_THEORY = SGP/SGP4

EPOCH          = 2026-02-22T02:33:18.898272
MEAN_MOTION    = 13.75970034
ECCENTRICITY   = .0034668
INCLINATION    = 82.9241
RA_OF_ASC_NODE = 279.3726
ARG_OF_PERICENTER = 176.1221
MEAN_ANOMALY   = 338.1734

EPHEMERIS_TYPE = 0
CLASSIFICATION_TYPE = U
NORAD_CAT_ID   = 21876
ELEMENT_SET_NO = 999
REV_AT_EPOCH   = 70727
BSTAR          = -.31545E-5
MEAN_MOTION_DOT = .12E-6
MEAN_MOTION_DDOT = 0

CCSDS_OMM_VERS = 2.0
CREATION_DATE  = 
ORIGINATOR     = 

OBJECT_NAME    = SL-8 R/B
OBJECT_ID      = 1992-020B
CENTER_NAME    = EARTH
REF_FRAME      = TEME
TIME_SYSTEM    = UTC
MEAN_ELEMENT_THEORY = SGP/SGP4

EPOCH          = 2026-02-22T06:21:06.473664
MEAN_MOTION    = 13.75547488
ECCENTRICITY   = .0028388
INCLINATION    = 82.9343
RA_OF_ASC_NODE = 165.2104
ARG_OF_PERICENTER = 343.3059
MEAN_ANOMALY   = 43.9846

EPHEMERIS_TYPE = 0
CLASSIFICATION_TYPE = U
NORAD_CAT_ID   = 21938
ELEMENT_SET_NO = 999
REV_AT_EPOCH   = 69901
BSTAR          = .90207E-4
MEAN_MOTION_DOT = .102E-5
MEAN_MOTION_DDOT = 0

CCSDS_OMM_VERS = 2.0
CREATION_DATE  = 
ORIGINATOR     = 

OBJECT_NAME    = USA 81
OBJECT_ID      = 1992-023A
CENTER_NAME    = EARTH
REF_FRAME      = TEME
TIME_SYSTEM    = UTC
MEAN_ELEMENT_THEORY = SGP/SGP4

EPOCH          = 2026-02-22T05:17:06.753120
MEAN_MOTION    = 14.32362188
ECCENTRICITY   = .0002736
INCLINATION    = 85.0112
RA_OF_ASC_NODE = 140.3627
ARG_OF_PERICENTER = 91.7869
MEAN_ANOMALY   = 268.3637

EPHEMERIS_TYPE = 0
CLASSIFICATION_TYPE = U
NORAD_CAT_ID   = 21949
ELEMENT_SET_NO = 999
REV_AT_EPOCH   = 9257
BSTAR          = .63634E-4
MEAN_MOTION_DOT = .192E-5
MEAN_MOTION_DDOT = 0

CCSDS_OMM_VERS = 2.0
CREATION_DATE  = 
ORIGINATOR     = 

OBJECT_NAME    = COSMOS 2219
OBJECT_ID      = 1992-076A
CENTER_NAME    = EARTH
REF_FRAME      = TEME
TIME_SYSTEM    = UTC
MEAN_ELEMENT_THEORY = SGP/SGP4

EPOCH          = 2026-02-22T05:47:48.730272
MEAN_MOTION    = 14.14081744
ECCENTRICITY   = .0019714
INCLINATION    = 71.0592
RA_OF_ASC_NODE = 50.3618
ARG_OF_PERICENTER = 227.7291
MEAN_ANOMALY   = 132.2160

EPHEMERIS_TYPE = 0
CLASSIFICATION_TYPE = U
NORAD_CAT_ID   = 22219
ELEMENT_SET_NO = 999
REV_AT_EPOCH   = 71619
BSTAR          = .19722E-3
MEAN_MOTION_DOT = .329E-5
MEAN_MOTION_DDOT = 0

CCSDS_OMM_VERS = 2.0
CREATION_DATE  = 
ORIGINATOR     = 

OBJECT_NAME    = SL-16 R/B
OBJECT_ID      = 1992-076B
CENTER_NAME    = EARTH
REF_FRAME      = TEME
TIME_SYSTEM    = UTC
MEAN_ELEMENT_THEORY = SGP/SGP4

EPOCH          = 2026-02-22T04:30:52.435296
MEAN_MOTION    = 14.16855080
ECCENTRICITY   = .0011013
INCLINATION    = 70.9979
RA_OF_ASC_NODE = 221.0261
ARG_OF_PERICENTER = 125.0602
MEAN_ANOMALY   = 55.8130

EPHEMERIS_TYPE = 0
CLASSIFICATION_TYPE = U
NORAD_CAT_ID   = 22220
ELEMENT_SET_NO = 999
REV_AT_EPOCH   = 71963
BSTAR          = .84342E-4
MEAN_MOTION_DOT = .121E-5
MEAN_MOTION_DDOT = 0

CCSDS_OMM_VERS = 2.0
CREATION_DATE  = 
ORIGINATOR     = 

OBJECT_NAME    = COSMOS 2221
OBJECT_ID      = 1992-080A
CENTER_NAME    = EARTH
REF_FRAME      = TEME
TIME_SYSTEM    = UTC
MEAN_ELEMENT_THEORY = SGP/SGP4

EPOCH          = 2026-02-22T02:54:46.119168
MEAN_MOTION    = 14.96136124
ECCENTRICITY   = .0012958
INCLINATION    = 82.5035
RA_OF_ASC_NODE = 293.9938
ARG_OF_PERICENTER = 243.1936
MEAN_ANOMALY   = 116.7961

EPHEMERIS_TYPE = 0
CLASSIFICATION_TYPE = U
NORAD_CAT_ID   = 22236
ELEMENT_SET_NO = 999
REV_AT_EPOCH   = 77846
BSTAR          = .14814E-3
MEAN_MOTION_DOT = .1695E-4
MEAN_MOTION_DDOT = 0

CCSDS_OMM_VERS = 2.0
CREATION_DATE  = 
ORIGINATOR     = 

OBJECT_NAME    = SL-16 R/B
OBJECT_ID      = 1992-093B
CENTER_NAME    = EARTH
REF_FRAME      = TEME
TIME_SYSTEM    = UTC
MEAN_ELEMENT_THEORY = SGP/SGP4

EPOCH          = 2026-02-22T06:18:21.752064
MEAN_MOTION    = 14.15447570
ECCENTRICITY   = .0005788
INCLINATION    = 71.0220
RA_OF_ASC_NODE = 36.6500
ARG_OF_PERICENTER = 310.3058
MEAN_ANOMALY   = 49.7559

EPHEMERIS_TYPE = 0
CLASSIFICATION_TYPE = U
NORAD_CAT_ID   = 22285
ELEMENT_SET_NO = 999
REV_AT_EPOCH   = 71097
BSTAR          = .15097E-3
MEAN_MOTION_DOT = .247E-5
MEAN_MOTION_DDOT = 0

CCSDS_OMM_VERS = 2.0
CREATION_DATE  = 
ORIGINATOR     = 

OBJECT_NAME    = COSMOS 2228
OBJECT_ID      = 1992-094A
CENTER_NAME    = EARTH
REF_FRAME      = TEME
TIME_SYSTEM    = UTC
MEAN_ELEMENT_THEORY = SGP/SGP4

EPOCH          = 2026-02-22T05:09:17.793792
MEAN_MOTION    = 14.97108836
ECCENTRICITY   = .0017984
INCLINATION    = 82.5145
RA_OF_ASC_NODE = 252.1301
ARG_OF_PERICENTER = 358.7053
MEAN_ANOMALY   = 1.4120

EPHEMERIS_TYPE = 0
CLASSIFICATION_TYPE = U
NORAD_CAT_ID   = 22286
ELEMENT_SET_NO = 999
REV_AT_EPOCH   = 77374
BSTAR          = .1643E-3
MEAN_MOTION_DOT = .1927E-4
MEAN_MOTION_DDOT = 0

