SL-14 R/B               
1 21423U 91042B   26053.22672200  .00000434  00000+0  52023-4 0  9991
2 21423  82.4897 234.6845 0015642 294.1028  65.8550 14.81812407850781
ERS-1                   
1 21574U 91050A   26053.05728685  .00000237  00000+0  90800-4 0  9993
2 21574  98.7890  70.8987 0030957 247.9236 111.8663 14.39435453813489
ARIANE 40 R/B           
1 21610U 91050F   26053.14541926  .00000217  00000+0  77378-4 0  9998
2 21610  98.2048 105.9627 0004284 115.2292 244.9343 14.42880889816751
INTERCOSMOS 25          
1 21819U 91086A   26053.21923325  .00001016  00000+0  19354-3 0  9990
2 21819  82.6076 319.3571 1487038 150.2572 219.2167 12.11951561494810
SL-8 R/B                
1 21876U 92008B   26053.10646873  .00000012  00000+0 -31545-5 0  9990
2 21876  82.9241 279.3726 0034668 176.1221 338.1734 13.75970034707276
SL-8 R/B                
1 21938U 92020B   26053.26465826  .00000102  00000+0  90207-4 0  9995
2 21938  82.9343 165.2104 0028388 343.3059  43.9846 13.75547488699010
USA 81                  
1 21949U 92023A   26053.22021705  .00000192  00000+0  63634-4 0  9993
2 21949  85.0112 140.3627 0002736  91.7869 268.3637 14.32362188 92571
COSMOS 2219             
1 22219U 92076A   26053.24153623  .00000329  00000+0  19722-3 0  9999
2 22219  71.0592  50.3618 0019714 227.7291 132.2160 14.14081744716190
SL-16 R/B               
1 22220U 92076B   26053.18810689  .00000121  00000+0  84342-4 0  9997
2 22220  70.9979 221.0261 0011013 125.0602  55.8130 14.16855080719633
COSMOS 2221             
1 22236U 92080A   26053.12136712  .00001695  00000+0  14814-3 0  9994
2 22236  82.5035 293.9938 0012958 243.1936 116.7961 14.96136124778466
SL-16 R/B               
1 22285U 92093B   26053.26275176  .00000247  00000+0  15097-3 0  9991
2 22285  71.0220  36.6500 0005788 310.3058  49.7559 14.15447570710972
COSMOS 2228             
1 22286U 92094A   26053.21478928  .00001927  00000+0  16430-3 0  9996
2 22286  82.5145 252.1301 0017984 358.7053   1.4120 14.97108836773744
